[{"OBJECT_NAME":"NUSAT-44 (MARIA MITCHELL)","OBJECT_ID":"2024-043AA","EPOCH":"2026-03-09T22:12:18.524160","MEAN_MOTION":15.29764305,"ECCENTRICITY":0.0007331,"INCLINATION":97.5299,"RA_OF_ASC_NODE":207.7691,"ARG_OF_PERICENTER":214.9017,"MEAN_ANOMALY":145.1743,"EPHEMERIS_TYPE":0,"CLASSIFICATION_TYPE":"U","NORAD_CAT_ID":59122,"ELEMENT_SET_NO":999,"REV_AT_EPOCH":11209,"BSTAR":0.00061063193,"MEAN_MOTION_DOT":0.00017562,"MEAN_MOTION_DDOT":0},{"OBJECT_NAME":"STARLINK-34496","OBJECT_ID":"2025-133E","EPOCH":"2026-03-09T12:42:48.735072","MEAN_MOTION":15.30202378,"ECCENTRICITY":0.00012321,"INCLINATION":53.1592,"RA_OF_ASC_NODE":117.5629,"ARG_OF_PERICENTER":82.7578,"MEAN_ANOMALY":277.3563,"EPHEMERIS_TYPE":0,"CLASSIFICATION_TYPE":"U","NORAD_CAT_ID":64476,"ELEMENT_SET_NO":999,"REV_AT_EPOCH":4116,"BSTAR":0.0011373607,"MEAN_MOTION_DOT":0.00033481,"MEAN_MOTION_DDOT":0}]
